SHIJIAN-16 (SJ-16)      
1 39358U 13057A   25335.26983057  .00002324  00000+0  23177-3 0  9995
2 39358  74.9740  11.3566 0017276 346.9324  13.1414 14.91940759656827
SL-4 R/B                
1 39679U 14021B   25334.77810615  .00014979  00000+0  35983-3 0  9994
2 39679  51.6062  98.7069 0102871 103.1949 258.0535 15.36207421641056
ALOS-2                  
1 39766U 14029A   25335.31302161  .00002515  00000+0  34330-3 0  9990
2 39766  97.9232  70.3218 0001375  99.0147 261.1220 14.79503329622324
YAOGAN-29               
1 41038U 15069A   25335.34840072  .00000584  00000+0  78833-4 0  9992
2 41038  98.0230 358.4830 0000918  12.8102 347.3134 14.82862072541301
ASTRO-H (HITOMI)        
1 41337U 16012A   25335.18291007  .00004117  00000+0  24660-3 0  9997
2 41337  31.0002 271.8702 0009482  61.0236 299.1352 15.09236698537335
HXMT (HUIYAN)           
1 42758U 17034A   25335.32782387  .00006257  00000+0  32654-3 0  9991
2 42758  43.0134 202.9505 0033205 330.8135  29.0857 15.16100309467602
CZ-2C R/B               
1 43521U 18054D   25335.18145674  .00111156  00000+0  82715-3 0  9997
2 43521  35.1344 259.1139 0018336  22.4418 337.7113 15.71245428413236
SAOCOM 1A               
1 43641U 18076A   25335.26262505  .00000621  00000+0  84601-4 0  9997
2 43641  97.8848 159.8518 0001575  87.4608 272.6786 14.82157052386787
H-2A R/B                
1 43682U 18084L   25335.23494423  .00022688  00000+0  62519-3 0  9994
2 43682  98.8785 166.9347 0028268   5.8775 354.2790 15.36757227390630
SAOCOM 1B               
1 46265U 20059A   25335.29385037  .00000628  00000+0  85441-4 0  9995
2 46265  97.8844 158.9838 0001356  90.3901 269.7468 14.82165762284170
CSS (TIANHE)            
1 48274U 21035A   25335.24649191  .00020611  00000+0  26566-3 0  9997
2 48274  41.4669  86.4444 0010456 305.4954  54.4908 15.58463389262230
COSMOS 2550             
1 48865U 21056A   25333.81495336 -.00000143  00000+0  14678-5 0  9999
2 48865  67.1430 343.0291 0008393 269.4513  90.5680 15.33825458248140
