CCSDS_OMM_VERS = 2.0
CREATION_DATE  = 
ORIGINATOR     = 

OBJECT_NAME    = SHIJIAN-16 (SJ-16)
OBJECT_ID      = 2013-057A
CENTER_NAME    = EARTH
REF_FRAME      = TEME
TIME_SYSTEM    = UTC
MEAN_ELEMENT_THEORY = SGP/SGP4

EPOCH          = 2025-12-01T06:28:33.361248
MEAN_MOTION    = 14.91940759
ECCENTRICITY   = .00172764
INCLINATION    = 74.9740
RA_OF_ASC_NODE = 11.3566
ARG_OF_PERICENTER = 346.9324
MEAN_ANOMALY   = 13.1414

EPHEMERIS_TYPE = 0
CLASSIFICATION_TYPE = U
NORAD_CAT_ID   = 39358
ELEMENT_SET_NO = 999
REV_AT_EPOCH   = 65682
BSTAR          = .23176882E-3
MEAN_MOTION_DOT = .2324E-4
MEAN_MOTION_DDOT = 0

CCSDS_OMM_VERS = 2.0
CREATION_DATE  = 
ORIGINATOR     = 

OBJECT_NAME    = SL-4 R/B
OBJECT_ID      = 2014-021B
CENTER_NAME    = EARTH
REF_FRAME      = TEME
TIME_SYSTEM    = UTC
MEAN_ELEMENT_THEORY = SGP/SGP4

EPOCH          = 2025-11-30T18:40:28.371360
MEAN_MOTION    = 15.36207421
ECCENTRICITY   = .01028717
INCLINATION    = 51.6062
RA_OF_ASC_NODE = 98.7069
ARG_OF_PERICENTER = 103.1949
MEAN_ANOMALY   = 258.0535

EPHEMERIS_TYPE = 0
CLASSIFICATION_TYPE = U
NORAD_CAT_ID   = 39679
ELEMENT_SET_NO = 999
REV_AT_EPOCH   = 64105
BSTAR          = .35983328E-3
MEAN_MOTION_DOT = .14979E-3
MEAN_MOTION_DDOT = 0

CCSDS_OMM_VERS = 2.0
CREATION_DATE  = 
ORIGINATOR     = 

OBJECT_NAME    = ALOS-2
OBJECT_ID      = 2014-029A
CENTER_NAME    = EARTH
REF_FRAME      = TEME
TIME_SYSTEM    = UTC
MEAN_ELEMENT_THEORY = SGP/SGP4

EPOCH          = 2025-12-01T07:30:45.067104
MEAN_MOTION    = 14.79503329
ECCENTRICITY   = .00013753
INCLINATION    = 97.9232
RA_OF_ASC_NODE = 70.3218
ARG_OF_PERICENTER = 99.0147
MEAN_ANOMALY   = 261.1220

EPHEMERIS_TYPE = 0
CLASSIFICATION_TYPE = U
NORAD_CAT_ID   = 39766
ELEMENT_SET_NO = 999
REV_AT_EPOCH   = 62232
BSTAR          = .34329698E-3
MEAN_MOTION_DOT = .2515E-4
MEAN_MOTION_DDOT = 0

CCSDS_OMM_VERS = 2.0
CREATION_DATE  = 
ORIGINATOR     = 

OBJECT_NAME    = YAOGAN-29
OBJECT_ID      = 2015-069A
CENTER_NAME    = EARTH
REF_FRAME      = TEME
TIME_SYSTEM    = UTC
MEAN_ELEMENT_THEORY = SGP/SGP4

EPOCH          = 2025-12-01T08:21:41.822208
MEAN_MOTION    = 14.82862072
ECCENTRICITY   = .0000918
INCLINATION    = 98.0230
RA_OF_ASC_NODE = 358.4830
ARG_OF_PERICENTER = 12.8102
MEAN_ANOMALY   = 347.3134

EPHEMERIS_TYPE = 0
CLASSIFICATION_TYPE = U
NORAD_CAT_ID   = 41038
ELEMENT_SET_NO = 999
REV_AT_EPOCH   = 54130
BSTAR          = .78833226E-4
MEAN_MOTION_DOT = .584E-5
MEAN_MOTION_DDOT = 0

CCSDS_OMM_VERS = 2.0
CREATION_DATE  = 
ORIGINATOR     = 

OBJECT_NAME    = ASTRO-H (HITOMI)
OBJECT_ID      = 2016-012A
CENTER_NAME    = EARTH
REF_FRAME      = TEME
TIME_SYSTEM    = UTC
MEAN_ELEMENT_THEORY = SGP/SGP4

EPOCH          = 2025-12-01T04:23:23.430048
MEAN_MOTION    = 15.09236698
ECCENTRICITY   = .00094829
INCLINATION    = 31.0002
RA_OF_ASC_NODE = 271.8702
ARG_OF_PERICENTER = 61.0236
MEAN_ANOMALY   = 299.1352

EPHEMERIS_TYPE = 0
CLASSIFICATION_TYPE = U
NORAD_CAT_ID   = 41337
ELEMENT_SET_NO = 999
REV_AT_EPOCH   = 53733
BSTAR          = .24659946E-3
MEAN_MOTION_DOT = .4117E-4
MEAN_MOTION_DDOT = 0

CCSDS_OMM_VERS = 2.0
CREATION_DATE  = 
ORIGINATOR     = 

OBJECT_NAME    = HXMT (HUIYAN)
OBJECT_ID      = 2017-034A
CENTER_NAME    = EARTH
REF_FRAME      = TEME
TIME_SYSTEM    = UTC
MEAN_ELEMENT_THEORY = SGP/SGP4

EPOCH          = 2025-12-01T07:52:03.982368
MEAN_MOTION    = 15.16100309
ECCENTRICITY   = .00332056
INCLINATION    = 43.0134
RA_OF_ASC_NODE = 202.9505
ARG_OF_PERICENTER = 330.8135
MEAN_ANOMALY   = 29.0857

EPHEMERIS_TYPE = 0
CLASSIFICATION_TYPE = U
NORAD_CAT_ID   = 42758
ELEMENT_SET_NO = 999
REV_AT_EPOCH   = 46760
BSTAR          = .32654283E-3
MEAN_MOTION_DOT = .6257E-4
MEAN_MOTION_DDOT = 0

CCSDS_OMM_VERS = 2.0
CREATION_DATE  = 
ORIGINATOR     = 

OBJECT_NAME    = CZ-2C R/B
OBJECT_ID      = 2018-054D
CENTER_NAME    = EARTH
REF_FRAME      = TEME
TIME_SYSTEM    = UTC
MEAN_ELEMENT_THEORY = SGP/SGP4

EPOCH          = 2025-12-01T04:21:17.862336
MEAN_MOTION    = 15.71245428
ECCENTRICITY   = .00183367
INCLINATION    = 35.1344
RA_OF_ASC_NODE = 259.1139
ARG_OF_PERICENTER = 22.4418
MEAN_ANOMALY   = 337.7113

EPHEMERIS_TYPE = 0
CLASSIFICATION_TYPE = U
NORAD_CAT_ID   = 43521
ELEMENT_SET_NO = 999
REV_AT_EPOCH   = 41323
BSTAR          = .82715204E-3
MEAN_MOTION_DOT = .111156E-2
MEAN_MOTION_DDOT = 0

CCSDS_OMM_VERS = 2.0
CREATION_DATE  = 
ORIGINATOR     = 

OBJECT_NAME    = SAOCOM 1A
OBJECT_ID      = 2018-076A
CENTER_NAME    = EARTH
REF_FRAME      = TEME
TIME_SYSTEM    = UTC
MEAN_ELEMENT_THEORY = SGP/SGP4

EPOCH          = 2025-12-01T06:18:10.804320
MEAN_MOTION    = 14.82157052
ECCENTRICITY   = .00015759
INCLINATION    = 97.8848
RA_OF_ASC_NODE = 159.8518
ARG_OF_PERICENTER = 87.4608
MEAN_ANOMALY   = 272.6786

EPHEMERIS_TYPE = 0
CLASSIFICATION_TYPE = U
NORAD_CAT_ID   = 43641
ELEMENT_SET_NO = 999
REV_AT_EPOCH   = 38678
BSTAR          = .84600666E-4
MEAN_MOTION_DOT = .621E-5
MEAN_MOTION_DDOT = 0

CCSDS_OMM_VERS = 2.0
CREATION_DATE  = 
ORIGINATOR     = 

OBJECT_NAME    = H-2A R/B
OBJECT_ID      = 2018-084L
CENTER_NAME    = EARTH
REF_FRAME      = TEME
TIME_SYSTEM    = UTC
MEAN_ELEMENT_THEORY = SGP/SGP4

EPOCH          = 2025-12-01T05:38:19.181472
MEAN_MOTION    = 15.36757227
ECCENTRICITY   = .00282687
INCLINATION    = 98.8785
RA_OF_ASC_NODE = 166.9347
ARG_OF_PERICENTER = 5.8775
MEAN_ANOMALY   = 354.2790

EPHEMERIS_TYPE = 0
CLASSIFICATION_TYPE = U
NORAD_CAT_ID   = 43682
ELEMENT_SET_NO = 999
REV_AT_EPOCH   = 39063
BSTAR          = .625193E-3
MEAN_MOTION_DOT = .22688E-3
MEAN_MOTION_DDOT = 0

CCSDS_OMM_VERS = 2.0
CREATION_DATE  = 
ORIGINATOR     = 

OBJECT_NAME    = SAOCOM 1B
OBJECT_ID      = 2020-059A
CENTER_NAME    = EARTH
REF_FRAME      = TEME
TIME_SYSTEM    = UTC
MEAN_ELEMENT_THEORY = SGP/SGP4

EPOCH          = 2025-12-01T07:03:08.671968
MEAN_MOTION    = 14.82165762
ECCENTRICITY   = .0001356
INCLINATION    = 97.8844
RA_OF_ASC_NODE = 158.9838
ARG_OF_PERICENTER = 90.3901
MEAN_ANOMALY   = 269.7468

EPHEMERIS_TYPE = 0
CLASSIFICATION_TYPE = U
NORAD_CAT_ID   = 46265
ELEMENT_SET_NO = 999
REV_AT_EPOCH   = 28417
BSTAR          = .85440784E-4
MEAN_MOTION_DOT = .628E-5
MEAN_MOTION_DDOT = 0

CCSDS_OMM_VERS = 2.0
CREATION_DATE  = 
ORIGINATOR     = 

OBJECT_NAME    = CSS (TIANHE)
OBJECT_ID      = 2021-035A
CENTER_NAME    = EARTH
REF_FRAME      = TEME
TIME_SYSTEM    = UTC
MEAN_ELEMENT_THEORY = SGP/SGP4

EPOCH          = 2025-12-01T05:54:56.901024
MEAN_MOTION    = 15.58463389
ECCENTRICITY   = .00104562
INCLINATION    = 41.4669
RA_OF_ASC_NODE = 86.4444
ARG_OF_PERICENTER = 305.4954
MEAN_ANOMALY   = 54.4908

EPHEMERIS_TYPE = 0
CLASSIFICATION_TYPE = U
NORAD_CAT_ID   = 48274
ELEMENT_SET_NO = 999
REV_AT_EPOCH   = 26223
BSTAR          = .26566419E-3
MEAN_MOTION_DOT = .20611E-3
MEAN_MOTION_DDOT = 0

CCSDS_OMM_VERS = 2.0
CREATION_DATE  = 
ORIGINATOR     = 

OBJECT_NAME    = COSMOS 2550
OBJECT_ID      = 2021-056A
CENTER_NAME    = EARTH
REF_FRAME      = TEME
TIME_SYSTEM    = UTC
MEAN_ELEMENT_THEORY = SGP/SGP4

EPOCH          = 2025-11-29T19:33:31.970304
MEAN_MOTION    = 15.33825458
ECCENTRICITY   = .00083936
INCLINATION    = 67.1430
RA_OF_ASC_NODE = 343.0291
ARG_OF_PERICENTER = 269.4513
MEAN_ANOMALY   = 90.5680

EPHEMERIS_TYPE = 0
CLASSIFICATION_TYPE = U
NORAD_CAT_ID   = 48865
ELEMENT_SET_NO = 999
REV_AT_EPOCH   = 24814
BSTAR          = .1467811E-5
MEAN_MOTION_DOT = -.143E-5
MEAN_MOTION_DDOT = 0

